LEMUR-2-ROUNDTRIPPER    
1 62711U 25009DG  26197.23381148  .00004249  00000+0  30998-3 0  9998
2 62711  97.7251 279.8778 0004493  61.9435 298.2244 15.04240999 81997
LEMUR-2-MYNAMEISJEFF    
1 62712U 25009DH  26197.49838762  .00004099  00000+0  29923-3 0  9995
2 62712  97.7300 280.5411 0004178  94.7076 265.4627 15.04233951 82038
LEMUR-2-LEIA-PHILIP     
1 63246U 25052AN  26197.27265367  .00000033  00000+0  77497-5 0  9992
2 63246  97.6802  88.7304 0005094 117.1089 243.0654 14.97391835 73026
LEMUR-2-LIA-MARTIN      
1 63248U 25052AQ  26197.26674806  .00001687  00000+0  14763-3 0  9996
2 63248  97.6864  89.2452 0005242  87.7146 272.4677 14.98034181 73038
LEMUR-2-DELOITTE-1      
1 63259U 25052BB  26197.64822060  .00002354  00000+0  20538-3 0  9996
2 63259  97.6883  89.9506 0002519  62.6927 297.4552 14.97789254 73105
LEMUR-2-EMERSONROSE     
1 63261U 25052BD  26197.26050368  .00002424  00000+0  20335-3 0  9994
2 63261  97.6884  90.1845 0002670  59.0410 301.1075 14.99296172 73099
LEMUR-2-MARACHE-FRAN    
1 63262U 25052BE  26197.41587500  .00001565  00000+0  12951-3 0  9995
2 63262  97.6830  90.7063 0005310 247.7297 112.3364 15.00319346 73143
LEMUR-2-THEFALCONER     
1 63264U 25052BG  26197.41162373  .00000978  00000+0  88709-4 0  9996
2 63264  97.6826  89.3071 0000332 267.6964  92.4220 14.97565458 73066
LEMUR-2-UNTITLED-SC     
1 63351U 25061A   26197.44196429  .00001714  00000+0  98681-4 0  9994
2 63351  97.5657 172.5967 0019322 158.9441 201.2590 15.13650316 72015
LEMUR-2-ESPERANZA       
1 63352U 25061B   26197.48331466  .00001740  00000+0  99858-4 0  9997
2 63352  97.5665 172.7382 0018941 157.9877 202.2172 15.13757107 72020
LEMUR-2-KREMPEL-BRO2    
1 63353U 25061C   26197.50192364  .00001823  00000+0  10315-3 0  9995
2 63353  97.5710 173.3273 0020084 150.9838 209.2514 15.14183666 72042
LEMUR-2-THERMORAPTOR    
1 63354U 25061D   26197.48241072  .00002143  00000+0  12035-3 0  9991
2 63354  97.5714 173.3894 0019866 149.8560 210.3819 15.14266902 72047
LEMUR-2-NEUROSPICY      
1 63355U 25061E   26197.45182177  .00001592  00000+0  90129-4 0  9997
2 63355  97.5641 172.9625 0017628 152.7568 207.4592 15.14385429 72040
LEMUR-2-TILLINFINITY    
1 63356U 25061F   26197.47581075  .00002184  00000+0  12019-3 0  9999
2 63356  97.5626 173.2974 0019195 141.6869 218.5731 15.14970049 72076
LEMUR-2-KREMPEL-BRO1    
1 63357U 25061G   26197.45302261  .00001636  00000+0  91405-4 0  9994
2 63357  97.5627 173.1825 0019807 143.1301 217.1297 15.14776667 72061
LEMUR-2-LANGER2SPACE    
1 63358U 25061H   26197.48540500  .00002108  00000+0  11788-3 0  9998
2 63358  97.5633 173.0171 0017536 150.9706 209.2504 15.14470272 72059
LEMUR-2-BALTO           
1 63395U 25052BH  26197.53357965  .00002444  00000+0  19936-3 0  9992
2 63395  97.6926  90.8128 0005068 322.0312  38.0554 15.00371044 73164
LEMUR-2-KRISH           
1 64561U 25135AK  26197.56457746  .00001793  00000+0  16313-3 0  9993
2 64561  97.7774 312.2462 0001231  97.2631 262.8730 14.96453725 58311
LEMUR-2-HUBBLE-4        
1 64565U 25135AP  26197.54797183  .00000692  00000+0  70823-4 0  9991
2 64565  97.7721 311.1143 0002779 158.5821 201.5516 14.93688184 58252
LEMUR-2-SEJONG-2        
1 64586U 25135BL  26197.58519002  .00002248  00000+0  20090-3 0  9999
2 64586  97.7709 312.4118 0004063 212.1137 147.9838 14.96918218 58349
LEMUR-2-HUBBLE-5        
1 64840U 25135BT  26197.55632927  .00000485  00000+0  50607-4 0  9990
2 64840  97.7741 311.7931 0004402 229.6726 130.4110 14.94215597 58299
LEMUR-2-KARENDARRELL    
1 64841U 25135BU  26197.26343099  .00003809  00000+0  30661-3 0  9998
2 64841  97.7720 313.4341 0012563 101.4569 258.8066 15.00507703 58375
LEMUR-2-LUCILLE-ROSE    
1 65403U 25135BV  26197.30357854  .00003119  00000+0  25193-3 0  9990
2 65403  97.7711 313.5095 0015031 185.6878 174.4177 15.00495624 53006
LEMUR-2-AFFIE-WAUWIE    
1 66295U 25248C   26197.34985153  .00012188  00000+0  44396-3 0  9990
2 66295  45.3891 316.8486 0008811 256.7086 103.2821 15.28283546 39056
OTTER SDM               
1 66678U 25276N   26197.15060765  .00003546  00000+0  16750-3 0  9999
2 66678  97.4204 270.1502 0004338 249.3545 110.7225 15.20063289 34818
LEMUR-2-STAS-GORBUK     
1 66686U 25276W   26197.50151986  .00002726  00000+0  13101-3 0  9999
2 66686  97.4238 270.5471 0003651 241.3262 118.7606 15.19665743 34865
LEMUR-2-TEODOR          
1 66768U 25276DG  26197.45308315  .00002829  00000+0  12941-3 0  9999
2 66768  97.4143 270.7729 0002197  87.5642 272.5846 15.21344314 34894
LEMUR-2-LAILA           
1 66776U 25276DQ  26197.15964327  .00003001  00000+0  13619-3 0  9992
2 66776  97.4166 270.6230 0002921  92.6922 267.4649 15.21569099 34856
LEMUR-2-CELIJO-SB-PK    
1 66781U 25276DW  26197.18531545  .00002988  00000+0  24295-3 0  9998
2 66781  97.5192 267.0056 0006925  61.9431 298.2493 15.00290087 26978
