OBJECT_NAME,OBJECT_ID,EPOCH,MEAN_MOTION,ECCENTRICITY,INCLINATION,RA_OF_ASC_NODE,ARG_OF_PERICENTER,MEAN_ANOMALY,EPHEMERIS_TYPE,CLASSIFICATION_TYPE,NORAD_CAT_ID,ELEMENT_SET_NO,REV_AT_EPOCH,BSTAR,MEAN_MOTION_DOT,MEAN_MOTION_DDOT
LEMUR-2-ROUNDTRIPPER,2025-009DG,2026-07-16T05:36:41.311872,15.04240999,.00044934,97.7251,279.8778,61.9435,298.2244,0,U,62711,999,8199,.30997959E-3,.4249E-4,0
LEMUR-2-MYNAMEISJEFF,2025-009DH,2026-07-16T11:57:40.690368,15.04233951,.00041785,97.7300,280.5411,94.7076,265.4627,0,U,62712,999,8203,.29922937E-3,.4099E-4,0
LEMUR-2-LEIA-PHILIP,2025-052AN,2026-07-16T06:32:37.277088,14.97391835,.00050947,97.6802,88.7304,117.1089,243.0654,0,U,63246,999,7302,.7749702E-5,.33E-6,0
LEMUR-2-LIA-MARTIN,2025-052AQ,2026-07-16T06:24:07.032384,14.98034181,.00052423,97.6864,89.2452,87.7146,272.4677,0,U,63248,999,7303,.14763309E-3,.1687E-4,0
LEMUR-2-DELOITTE-1,2025-052BB,2026-07-16T15:33:26.259840,14.97789254,.00025199,97.6883,89.9506,62.6927,297.4552,0,U,63259,999,7310,.20538422E-3,.2354E-4,0
LEMUR-2-EMERSONROSE,2025-052BD,2026-07-16T06:15:07.517952,14.99296172,.00026706,97.6884,90.1845,59.0410,301.1075,0,U,63261,999,7309,.20335242E-3,.2424E-4,0
LEMUR-2-MARACHE-FRAN,2025-052BE,2026-07-16T09:58:51.600000,15.00319346,.00053102,97.6830,90.7063,247.7297,112.3364,0,U,63262,999,7314,.12950646E-3,.1565E-4,0
LEMUR-2-THEFALCONER,2025-052BG,2026-07-16T09:52:44.290272,14.97565458,.00003329,97.6826,89.3071,267.6964,92.4220,0,U,63264,999,7306,.88709147E-4,.978E-5,0
LEMUR-2-UNTITLED-SC,2025-061A,2026-07-16T10:36:25.714656,15.13650316,.00193228,97.5657,172.5967,158.9441,201.2590,0,U,63351,999,7201,.9868086E-4,.1714E-4,0
LEMUR-2-ESPERANZA,2025-061B,2026-07-16T11:35:58.386624,15.13757107,.00189417,97.5665,172.7382,157.9877,202.2172,0,U,63352,999,7202,.99858461E-4,.174E-4,0
LEMUR-2-KREMPEL-BRO2,2025-061C,2026-07-16T12:02:46.202496,15.14183666,.00200849,97.5710,173.3273,150.9838,209.2514,0,U,63353,999,7204,.10314793E-3,.1823E-4,0
LEMUR-2-THERMORAPTOR,2025-061D,2026-07-16T11:34:40.286208,15.14266902,.00198666,97.5714,173.3894,149.8560,210.3819,0,U,63354,999,7204,.12034586E-3,.2143E-4,0
LEMUR-2-NEUROSPICY,2025-061E,2026-07-16T10:50:37.400928,15.14385429,.00176282,97.5641,172.9625,152.7568,207.4592,0,U,63355,999,7204,.90128518E-4,.1592E-4,0
LEMUR-2-TILLINFINITY,2025-061F,2026-07-16T11:25:10.048800,15.14970049,.00191959,97.5626,173.2974,141.6869,218.5731,0,U,63356,999,7207,.12019415E-3,.2184E-4,0
LEMUR-2-KREMPEL-BRO1,2025-061G,2026-07-16T10:52:21.153504,15.14776667,.0019807,97.5627,173.1825,143.1301,217.1297,0,U,63357,999,7206,.91404563E-4,.1636E-4,0
LEMUR-2-LANGER2SPACE,2025-061H,2026-07-16T11:38:58.992000,15.14470272,.00175366,97.5633,173.0171,150.9706,209.2504,0,U,63358,999,7205,.11788214E-3,.2108E-4,0
LEMUR-2-BALTO,2025-052BH,2026-07-16T12:48:21.281760,15.00371044,.00050681,97.6926,90.8128,322.0312,38.0554,0,U,63395,999,7316,.19936409E-3,.2444E-4,0
LEMUR-2-KRISH,2025-135AK,2026-07-16T13:32:59.492544,14.96453725,.00012318,97.7774,312.2462,97.2631,262.8730,0,U,64561,999,5831,.16312815E-3,.1793E-4,0
LEMUR-2-HUBBLE-4,2025-135AP,2026-07-16T13:09:04.766112,14.93688184,.00027792,97.7721,311.1143,158.5821,201.5516,0,U,64565,999,5825,.70822651E-4,.692E-5,0
LEMUR-2-SEJONG-2,2025-135BL,2026-07-16T14:02:40.417728,14.96918218,.0004063,97.7709,312.4118,212.1137,147.9838,0,U,64586,999,5834,.2009023E-3,.2248E-4,0
LEMUR-2-HUBBLE-5,2025-135BT,2026-07-16T13:21:06.848928,14.94215597,.00044024,97.7741,311.7931,229.6726,130.4110,0,U,64840,999,5829,.50607099E-4,.485E-5,0
LEMUR-2-KARENDARRELL,2025-135BU,2026-07-16T06:19:20.437536,15.00507703,.0012563,97.7720,313.4341,101.4569,258.8066,0,U,64841,999,5837,.30661338E-3,.3809E-4,0
LEMUR-2-LUCILLE-ROSE,2025-135BV,2026-07-16T07:17:09.185856,15.00495624,.00150319,97.7711,313.5095,185.6878,174.4177,0,U,65403,999,5300,.25192648E-3,.3119E-4,0
LEMUR-2-AFFIE-WAUWIE,2025-248C,2026-07-16T08:23:47.172192,15.28283546,.0008811,45.3891,316.8486,256.7086,103.2821,0,U,66295,999,3905,.44396409E-3,.12188E-3,0
OTTER SDM,2025-276N,2026-07-16T03:36:52.500960,15.20063289,.00043382,97.4204,270.1502,249.3545,110.7225,0,U,66678,999,3481,.16749566E-3,.3546E-4,0
LEMUR-2-STAS-GORBUK,2025-276W,2026-07-16T12:02:11.315904,15.19665743,.00036513,97.4238,270.5471,241.3262,118.7606,0,U,66686,999,3486,.13101264E-3,.2726E-4,0
LEMUR-2-TEODOR,2025-276DG,2026-07-16T10:52:26.384160,15.21344314,.00021978,97.4143,270.7729,87.5642,272.5846,0,U,66768,999,3489,.12940863E-3,.2829E-4,0
LEMUR-2-LAILA,2025-276DQ,2026-07-16T03:49:53.178528,15.21569099,.00029211,97.4166,270.6230,92.6922,267.4649,0,U,66776,999,3485,.13618672E-3,.3001E-4,0
LEMUR-2-CELIJO-SB-PK,2025-276DW,2026-07-16T04:26:51.254880,15.00290087,.00069255,97.5192,267.0056,61.9431,298.2493,0,U,66781,999,2697,.24295294E-3,.2988E-4,0
